     2.100          NAVIGATION                              RINEX VERSION / TYPE
fic2rin                                 09/29/2016 00:09:15 PGM / RUN BY / DATE
                                                            END OF HEADER
23 16  9 28 18  0  0.0 -.191525556147D-03 -.136424205266D-11  .000000000000D+00
     .114000000000D+03  .651250000000D+02  .510735559900D-08 -.216885437422D+01
     .324659049511D-05  .111380841117D-01  .534206628799D-05  .515360784721D+04
     .324000000000D+06  .102445483208D-06 -.233122027104D+01 -.100582838058D-06
     .945431070142D+00  .267468750000D+03 -.252789407207D+01 -.834463330176D-08
     .401802450971D-09  .100000000000D+01  .191600000000D+04  .000000000000D+00
     .340000000000D+01  .000000000000D+00 -.200234353542D-07  .114000000000D+03
     .316806000000D+06  .400000000000D+01
24 16  9 28 18  0  0.0 -.238302163780D-04 -.568434188608D-12  .000000000000D+00
     .170000000000D+02 -.565000000000D+02  .496699260946D-08 -.271283965008D+01
    -.287219882011D-05  .470186572056D-02  .578165054321D-05  .515372083473D+04
     .324000000000D+06  .204890966415D-07 -.130566787092D+01 -.186264514923D-08
     .947720156577D+00  .260875000000D+03  .394891110834D+00 -.835106214097D-08
    -.416445918073D-09  .100000000000D+01  .191600000000D+04  .000000000000D+00
     .240000000000D+01  .000000000000D+00  .232830643654D-08  .170000000000D+02
     .316806000000D+06  .400000000000D+01
25 16  9 28 18  0  0.0 -.254026614130D-03 -.693489710102D-11  .000000000000D+00
     .670000000000D+02  .144687500000D+02  .370872591189D-08  .145922830144D+01
     .713393092155D-06  .559299113229D-02  .126678496599D-04  .515370238304D+04
     .324000000000D+06 -.614672899246D-07 -.230032499628D+00  .298023223877D-07
     .978545626730D+00  .141843750000D+03  .782041702673D+00 -.770889253489D-08
    -.146434671020D-10  .100000000000D+01  .191600000000D+04  .000000000000D+00
     .240000000000D+01  .000000000000D+00  .558793544769D-08  .670000000000D+02
     .316806000000D+06  .400000000000D+01
26 16  9 28 18  0  0.0 -.477840658277D-03 -.670752342558D-11  .000000000000D+00
     .610000000000D+02  .503125000000D+01  .415124434456D-08  .102761228239D+01
     .350177288055D-06  .100682070479D-02  .120420008898D-04  .515359051132D+04
     .324000000000D+06  .372529029846D-08 -.241185296987D+00  .316649675369D-07
     .960440379957D+00  .147125000000D+03 -.122111868438D+00 -.781818280155D-08
     .821462788651D-11  .100000000000D+01  .191600000000D+04  .000000000000D+00
     .240000000000D+01  .000000000000D+00  .698491930962D-08  .610000000000D+02
     .316806000000D+06  .400000000000D+01
27 16  9 28 18  0  0.0  .145071186125D-03  .488853402203D-11  .000000000000D+00
     .111000000000D+03  .669687500000D+02  .450090176634D-08 -.880029716976D+00
     .352039933205D-05  .382302387152D-02  .493414700031D-05  .515365004349D+04
     .324000000000D+06  .614672899246D-07  .810045739279D+00 -.745058059692D-08
     .972496413659D+00  .288687500000D+03  .341494164991D+00 -.823355724642D-08
     .475019786481D-09  .100000000000D+01  .191600000000D+04  .000000000000D+00
     .240000000000D+01  .000000000000D+00  .186264514923D-08  .111000000000D+03
     .316806000000D+06  .400000000000D+01
30 16  9 28 18  0  0.0  .152174849063D-03  .147792889038D-11  .000000000000D+00
     .850000000000D+02 -.571562500000D+02  .487520307178D-08  .262474742516D+01
    -.301189720631D-05  .241114373785D-02  .672601163387D-05  .515376399231D+04
     .324000000000D+06 -.204890966415D-07 -.121394377194D+01  .260770320892D-07
     .950470245072D+00  .245937500000D+03 -.313098206780D+01 -.827820196320D-08
    -.510378402166D-09  .100000000000D+01  .191600000000D+04  .000000000000D+00
     .240000000000D+01  .000000000000D+00  .372529029846D-08  .850000000000D+02
     .316806000000D+06  .400000000000D+01
31 16  9 28 18  0  0.0  .245449598879D-03 -.216004991671D-11  .000000000000D+00
     .790000000000D+02 -.601250000000D+02  .446054294237D-08  .243977956398D+01
    -.296346843243D-05  .833135866560D-02  .611692667007D-05  .515355660820D+04
     .324000000000D+06 -.149011611938D-07 -.124642933959D+01  .372529029846D-07
     .969474437450D+00  .269875000000D+03 -.377993034801D+00 -.804247785863D-08
    -.547522806523D-09  .100000000000D+01  .191600000000D+04  .000000000000D+00
     .240000000000D+01  .000000000000D+00 -.135041773319D-07  .790000000000D+02
     .316806000000D+06  .400000000000D+01
32 16  9 28 18  0  0.0 -.133014749736D-03 -.150066625793D-10  .000000000000D+00
     .160000000000D+02  .605000000000D+02  .488056043779D-08 -.458639268555D+00
     .301375985146D-05  .639426754788D-03  .596977770329D-05  .515364599609D+04
     .324000000000D+06 -.149011611938D-07 -.233328207120D+01  .558793544769D-08
     .959082497933D+00  .263656250000D+03 -.234788960227D+01 -.832927551919D-08
     .270011247052D-09  .100000000000D+01  .191600000000D+04  .000000000000D+00
     .240000000000D+01  .000000000000D+00  .931322574615D-09  .160000000000D+02
     .316806000000D+06  .400000000000D+01
 1 16  9 28 20  0  0.0  .355103984475D-04  .125055521494D-11  .000000000000D+00
     .620000000000D+02 -.815937500000D+02  .473841165958D-08 -.197202711894D+01
    -.441260635853D-05  .592370494269D-02  .484846532345D-05  .515370162392D+04
     .331200000000D+06  .633299350739D-07  .186816176542D+01 -.100582838058D-06
     .965057867288D+00  .287406250000D+03  .555491047552D+00 -.826498712703D-08
    -.193936649668D-09  .100000000000D+01  .191600000000D+04  .000000000000D+00
     .240000000000D+01  .000000000000D+00  .512227416039D-08  .620000000000D+02
     .324006000000D+06  .400000000000D+01
 2 16  9 28 20  0  0.0  .546901486814D-03 -.500222085975D-11  .000000000000D+00
     .440000000000D+02 -.712187500000D+02  .526164774018D-08 -.151261005049D+01
    -.344030559063D-05  .159679068020D-01  .452250242233D-05  .515364039230D+04
     .331200000000D+06  .303611159325D-06  .181994512953D+01  .143423676491D-06
     .943859626948D+00  .277250000000D+03 -.208133003655D+01 -.843642283945D-08
    -.207151485834D-09  .100000000000D+01  .191600000000D+04  .000000000000D+00
     .240000000000D+01  .000000000000D+00 -.204890966415D-07  .440000000000D+02
     .324006000000D+06  .400000000000D+01
 3 16  9 28 20  0  0.0 -.896565616131D-04 -.204636307899D-11  .000000000000D+00
     .310000000000D+02 -.167812500000D+02  .433625205087D-08 -.302169271582D+01
    -.903382897377D-06  .218231696635D-03  .123586505651D-04  .515362198067D+04
     .331200000000D+06 -.465661287308D-07  .290989657619D+01 -.521540641785D-07
     .959926042830D+00  .140312500000D+03  .476713090385D+00 -.786282751833D-08
     .275011455331D-10  .100000000000D+01  .191600000000D+04  .000000000000D+00
     .240000000000D+01  .000000000000D+00  .139698386192D-08  .310000000000D+02
     .324006000000D+06  .400000000000D+01
 4 16  9 28 20  0  0.0  .362796708941D-05  .352429196937D-11  .000000000000D+00
     .390000000000D+02  .464375000000D+02  .481698636110D-08  .159949769110D+01
     .225380063057D-05  .841993116774D-02  .421516597271D-05  .515359869576D+04
     .331200000000D+06  .160187482834D-06 -.221408637781D+01 -.372529029846D-07
     .966218584528D+00  .293750000000D+03 -.101562592748D+01 -.825177229087D-08
     .121433629627D-09  .100000000000D+01  .191600000000D+04  .000000000000D+00
     .485000000000D+01  .630000000000D+02 -.372529029846D-08  .390000000000D+02
     .324006000000D+06  .400000000000D+01
 5 16  9 28 20  0  0.0 -.879992730916D-04  .250111042988D-11  .000000000000D+00
     .470000000000D+02 -.906250000000D+01  .472769692755D-08  .962665007296D+00
    -.249594449997D-06  .479494256433D-02  .123661011457D-04  .515361322594D+04
     .331200000000D+06 -.186264514923D-08  .289633586248D+01  .540167093277D-07
     .946948699894D+00  .132843750000D+03  .516456842695D+00 -.810319467344D-08
    -.292869342041D-10  .100000000000D+01  .191600000000D+04  .000000000000D+00
     .240000000000D+01  .000000000000D+00 -.107102096081D-07  .470000000000D+02
     .324006000000D+06  .400000000000D+01
 6 16  9 28 20  0  0.0  .252548605204D-03  .511590769747D-11  .000000000000D+00
     .260000000000D+02 -.786562500000D+02  .477769901034D-08 -.150492016894D+01
    -.399909913540D-05  .200397451408D-03  .537373125553D-05  .515377308655D+04
     .331200000000D+06 -.409781932831D-07  .185975364815D+01  .149011611938D-07
     .964862589668D+00  .279031250000D+03 -.154863260734D+01 -.826534428477D-08
    -.284654714154D-09  .100000000000D+01  .191600000000D+04  .000000000000D+00
     .240000000000D+01  .000000000000D+00  .419095158577D-08  .260000000000D+02
     .324006000000D+06  .400000000000D+01
 7 16  9 28 20  0  0.0  .423683319241D-03 -.295585778076D-11  .000000000000D+00
     .117000000000D+03 -.605000000000D+02  .455804700381D-08 -.264001674819D+01
    -.320374965668D-05  .100381510565D-01  .611692667007D-05  .515362630081D+04
     .331200000000D+06 -.409781932831D-07 -.125639583766D+01 -.169500708580D-06
     .964669559091D+00  .263125000000D+03 -.262735268184D+01 -.808747973314D-08
    -.430732227440D-09  .100000000000D+01  .191600000000D+04  .000000000000D+00
     .340000000000D+01  .000000000000D+00 -.111758708954D-07  .117000000000D+03
     .324006000000D+06  .400000000000D+01
 8 16  9 28 20  0  0.0 -.335085205734D-04 -.136424205266D-11  .000000000000D+00
     .310000000000D+02  .710312500000D+02  .460733477113D-08  .968240569918D+00
     .373646616936D-05  .176879542414D-02  .522285699844D-05  .515375348091D+04
     .331200000000D+06 -.558793544769D-08  .806314200989D+00 -.577419996262D-07
     .964403242169D+00  .278906250000D+03 -.102149743843D+01 -.829391690350D-08
     .471805366873D-09  .100000000000D+01  .191600000000D+04  .000000000000D+00
     .240000000000D+01  .000000000000D+00  .512227416039D-08  .310000000000D+02
     .324006000000D+06  .400000000000D+01
